STARLINK-31627          
1 59268U 24050Q   26068.62213281  .00026938  00000+0  91832-3 0  9991
2 59268  53.1599 181.6290 0000970  80.9687 279.1423 15.30200209110535
NUSHSAT1                
1 63211U 25052B   26068.64700493  .00023034  00000+0  74857-3 0  9997
2 63211  97.4095 325.7239 0005501  84.7512 275.4357 15.31903202 54882
