[{"OBJECT_NAME":"STARLINK-31627","OBJECT_ID":"2024-050Q","EPOCH":"2026-03-09T14:55:52.274784","MEAN_MOTION":15.30200209,"ECCENTRICITY":9.7e-5,"INCLINATION":53.1599,"RA_OF_ASC_NODE":181.629,"ARG_OF_PERICENTER":80.9687,"MEAN_ANOMALY":279.1423,"EPHEMERIS_TYPE":0,"CLASSIFICATION_TYPE":"U","NORAD_CAT_ID":59268,"ELEMENT_SET_NO":999,"REV_AT_EPOCH":11053,"BSTAR":0.00091832,"MEAN_MOTION_DOT":0.00026938,"MEAN_MOTION_DDOT":0},{"OBJECT_NAME":"NUSHSAT1","OBJECT_ID":"2025-052B","EPOCH":"2026-03-09T15:31:41.225952","MEAN_MOTION":15.31903202,"ECCENTRICITY":0.0005501,"INCLINATION":97.4095,"RA_OF_ASC_NODE":325.7239,"ARG_OF_PERICENTER":84.7512,"MEAN_ANOMALY":275.4357,"EPHEMERIS_TYPE":0,"CLASSIFICATION_TYPE":"U","NORAD_CAT_ID":63211,"ELEMENT_SET_NO":999,"REV_AT_EPOCH":5488,"BSTAR":0.00074857,"MEAN_MOTION_DOT":0.00023034,"MEAN_MOTION_DDOT":0}]
